COMMENT,ORIGINATOR,NORAD_CAT_ID,OBJECT_NAME,OBJECT_TYPE,CLASSIFICATION_TYPE,INTLDES,EPOCH,EPOCH_MICROSECONDS,MEAN_MOTION,ECCENTRICITY,INCLINATION,RA_OF_ASC_NODE,ARG_OF_PERICENTER,MEAN_ANOMALY,EPHEMERIS_TYPE,ELEMENT_SET_NO,REV_AT_EPOCH,BSTAR,MEAN_MOTION_DOT,MEAN_MOTION_DDOT,FILE,TLE_LINE0,TLE_LINE1,TLE_LINE2,OBJECT_ID,OBJECT_NUMBER,SEMIMAJOR_AXIS,PERIOD,APOGEE,PERIGEE,DECAYED,date
GENERATED VIA SPACETRACK.ORG API,18 SPCS,48883,SPACEBEE-100,PAYLOAD,U,21059E,2023/3/13 7:33,914496,15.24984081,0.0008154,97.5803,207.315,246.6735,113.3645,0,999,9474,0.0016155,0.00040436,0,3859425,0 SPACEBEE-100,1 48883U 21059E   23072.31462864  .00040436  00000-0  16155-2 0  9993,2 48883  97.5803 207.3150 0008154 246.6735 113.3645 15.24984081 94743,2021-059E,48883,6868.97,94.427,496.436,485.234,0,
GENERATED VIA SPACETRACK.ORG API,18 SPCS,48883,SPACEBEE-100,PAYLOAD,U,21059E,2023/3/13 21:43,433120,15.25030452,0.0008131,97.5805,207.913,244.811,115.2285,0,999,9483,0.0014997,0.0003757,0,3859631,0 SPACEBEE-100,1 48883U 21059E   23072.90516705  .00037570  00000-0  14997-2 0  9999,2 48883  97.5805 207.9130 0008131 244.8110 115.2285 15.25030452 94837,2021-059E,48883,6868.831,94.424,496.281,485.111,0,
GENERATED VIA SPACETRACK.ORG API,18 SPCS,48883,SPACEBEE-100,PAYLOAD,U,21059E,2023/3/14 8:44,543584,15.25069118,0.0008107,97.5804,208.3781,243.1906,116.8502,0,999,9490,0.0016499,0.00041409,0,3860227,0 SPACEBEE-100,1 48883U 21059E   23073.36446231  .00041409  00000-0  16499-2 0  9991,2 48883  97.5804 208.3781 0008107 243.1906 116.8502 15.25069118 94909,2021-059E,48883,6868.715,94.422,496.148,485.011,0,
GENERATED VIA SPACETRACK.ORG API,18 SPCS,48883,SPACEBEE-100,PAYLOAD,U,21059E,2023/3/14 15:02,136320,15.25092778,0.0008121,97.5803,208.6437,241.8332,118.2085,0,999,9494,0.0017658,0.00044372,0,3860373,0 SPACEBEE-100,1 48883U 21059E   23073.62691130  .00044372  00000-0  17658-2 0  9990,2 48883  97.5803 208.6437 0008121 241.8332 118.2085 15.25092778 94947,2021-059E,48883,6868.644,94.42,496.087,484.931,0,
GENERATED VIA SPACETRACK.ORG API,18 SPCS,48883,SPACEBEE-100,PAYLOAD,U,21059E,2023/3/14 19:46,561088,15.25113015,0.0008116,97.5803,208.8431,241.1529,118.8895,0,999,9497,0.0018141,0.00045623,0,3860643,0 SPACEBEE-100,1 48883U 21059E   23073.82374492  .00045623  00000-0  18141-2 0  9999,2 48883  97.5803 208.8431 0008116 241.1529 118.8895 15.25113015 94974,2021-059E,48883,6868.583,94.419,496.023,484.874,0,
GENERATED VIA SPACETRACK.ORG API,18 SPCS,48883,SPACEBEE-100,PAYLOAD,U,21059E,2023/3/15 8:22,62624,15.25162696,0.0008153,97.58,209.3751,239.8066,120.2365,0,999,9505,0.0018801,0.00047367,0,3861201,0 SPACEBEE-100,1 48883U 21059E   23074.34862341  .00047367  00000-0  18801-2 0  9992,2 48883  97.5800 209.3751 0008153 239.8066 120.2365 15.25162696 95051,2021-059E,48883,6868.434,94.416,495.899,484.699,0,
GENERATED VIA SPACETRACK.ORG API,18 SPCS,48883,SPACEBEE-100,PAYLOAD,U,21059E,2023/3/15 8:22,62624,15.25162696,0.0008153,97.58,209.3751,239.8066,120.2365,0,999,9505,0.0018801,0.00047367,0,3861350,0 SPACEBEE-100,1 48883U 21059E   23074.34862341  .00047367  00000-0  18801-2 0  9992,2 48883  97.5800 209.3751 0008153 239.8066 120.2365 15.25162696 95051,2021-059E,48883,6868.434,94.416,495.899,484.699,0,
GENERATED VIA SPACETRACK.ORG API,18 SPCS,48883,SPACEBEE-100,PAYLOAD,U,21059E,2023/3/15 20:57,969216,15.2521304,0.0008164,97.5798,209.9066,238.0132,122.0313,0,999,9513,0.0017331,0.00043703,0,3861599,0 SPACEBEE-100,1 48883U 21059E   23074.87348344  .00043703  00000-0  17331-2 0  9999,2 48883  97.5798 209.9066 0008164 238.0132 122.0313 15.25213040 95131,2021-059E,48883,6868.283,94.413,495.755,484.541,0,
GENERATED VIA SPACETRACK.ORG API,18 SPCS,48883,SPACEBEE-100,PAYLOAD,U,21059E,2023/3/16 14:17,9600,15.25276448,0.0008182,97.5798,210.6374,235.6704,124.376,0,999,9524,0.0015968,0.00040318,0,3862295,0 SPACEBEE-100,1 48883U 21059E   23075.59513900  .00040318  00000-0  15968-2 0  9994,2 48883  97.5798 210.6374 0008182 235.6704 124.3760 15.25276448 95244,2021-059E,48883,6868.092,94.409,495.577,484.338,0,
GENERATED VIA SPACETRACK.ORG API,18 SPCS,48883,SPACEBEE-100,PAYLOAD,U,21059E,2023/3/16 20:34,531680,15.25295779,0.0008175,97.5798,210.9033,234.8467,125.2005,0,999,9528,0.0014141,0.00035695,0,3862592,0 SPACEBEE-100,1 48883U 21059E   23075.85755245  .00035695  00000-0  14141-2 0  9997,2 48883  97.5798 210.9033 0008175 234.8467 125.2005 15.25295779 95282,2021-059E,48883,6868.034,94.408,495.514,484.285,0,
GENERATED VIA SPACETRACK.ORG API,18 SPCS,48883,SPACEBEE-100,PAYLOAD,U,21059E,2023/3/16 22:09,623104,15.25300243,0.0008171,97.5798,210.9697,234.6052,125.4422,0,999,9529,0.0013971,0.00035268,0,3862475,0 SPACEBEE-100,1 48883U 21059E   23075.92315536  .00035268  00000-0  13971-2 0  9996,2 48883  97.5798 210.9697 0008171 234.6052 125.4422 15.25300243 95291,2021-059E,48883,6868.021,94.408,495.498,484.274,0,
GENERATED VIA SPACETRACK.ORG API,18 SPCS,48883,SPACEBEE-100,PAYLOAD,U,21059E,2023/3/17 7:36,788896,15.25327783,0.0008153,97.58,211.3685,233.4493,126.5994,0,999,9535,0.0013285,0.00033552,0,3863278,0 SPACEBEE-100,1 48883U 21059E   23076.31676839  .00033552  00000-0  13285-2 0  9998,2 48883  97.5800 211.3685 0008153 233.4493 126.5994 15.25327783 95354,2021-059E,48883,6867.938,94.406,495.403,484.204,0,
GENERATED VIA SPACETRACK.ORG API,18 SPCS,48883,SPACEBEE-100,PAYLOAD,U,21059E,2023/3/17 21:46,855200,15.25372432,0.000812,97.5802,211.9667,231.1417,128.9096,0,999,9544,0.0014087,0.00035639,0,3863544,0 SPACEBEE-100,1 48883U 21059E   23076.90717425  .00035639  00000-0  14087-2 0  9999,2 48883  97.5802 211.9667 0008120 231.1417 128.9096 15.25372432 95447,2021-059E,48883,6867.804,94.403,495.246,484.093,0,
GENERATED VIA SPACETRACK.ORG API,18 SPCS,48883,SPACEBEE-100,PAYLOAD,U,21059E,2023/3/18 2:29,265472,15.25383646,0.0008112,97.5802,212.1661,230.233,129.8194,0,999,9547,0.001366,0.00034563,0,3863716,0 SPACEBEE-100,1 48883U 21059E   23077.10397298  .00034563  00000-0  13660-2 0  9995,2 48883  97.5802 212.1661 0008112 230.2330 129.8194 15.25383646 95470,2021-059E,48883,6867.771,94.402,495.207,484.065,0,
GENERATED VIA SPACETRACK.ORG API,18 SPCS,48883,SPACEBEE-100,PAYLOAD,U,21059E,2023/3/18 21:23,274464,15.25437903,0.0008129,97.5804,212.9639,227.4347,132.6205,0,999,9559,0.0012258,0.00031044,0,3864479,0 SPACEBEE-100,1 48883U 21059E   23077.89114901  .00031044  00000-0  12258-2 0  9992,2 48883  97.5804 212.9639 0008129 227.4347 132.6205 15.25437903 95593,2021-059E,48883,6867.608,94.399,495.055,483.89,0,
GENERATED VIA SPACETRACK.ORG API,18 SPCS,48883,SPACEBEE-100,PAYLOAD,U,21059E,2023/3/19 3:41,364384,15.25458017,0.0008152,97.5804,213.2297,226.6811,133.3748,0,999,9563,0.0013472,0.00034161,0,3864649,0 SPACEBEE-100,1 48883U 21059E   23078.15353431  .00034161  00000-0  13472-2 0  9997,2 48883  97.5804 213.2297 0008152 226.6811 133.3748 15.25458017 95634,2021-059E,48883,6867.547,94.398,495.011,483.814,0,
GENERATED VIA SPACETRACK.ORG API,18 SPCS,48883,SPACEBEE-100,PAYLOAD,U,21059E,2023/3/19 8:24,775008,15.25471995,0.0008159,97.5804,213.4292,226.065,133.9915,0,999,9566,0.0013233,0.00033565,0,3865049,0 SPACEBEE-100,1 48883U 21059E   23078.35032147  .00033565  00000-0  13233-2 0  9999,2 48883  97.5804 213.4292 0008159 226.0650 133.9915 15.25471995 95668,2021-059E,48883,6867.505,94.397,494.974,483.767,0,
GENERATED VIA SPACETRACK.ORG API,18 SPCS,48883,SPACEBEE-100,PAYLOAD,U,21059E,2023/3/19 21:00,732288,15.25509821,0.0008187,97.5805,213.961,224.455,135.6032,0,999,9574,0.0012964,0.00032916,0,3865354,0 SPACEBEE-100,1 48883U 21059E   23078.87507792  .00032916  00000-0  12964-2 0  9998,2 48883  97.5805 213.9610 0008187 224.4550 135.6032 15.25509821 95748,2021-059E,48883,6867.392,94.395,494.879,483.635,0,
GENERATED VIA SPACETRACK.ORG API,18 SPCS,48883,SPACEBEE-100,PAYLOAD,U,21059E,2023/3/20 8:01,383008,15.25545751,0.0008202,97.5807,214.4264,223.2451,136.8144,0,999,9581,0.0014474,0.00036818,0,3865811,0 SPACEBEE-100,1 48883U 21059E   23079.33422897  .00036818  00000-0  14474-2 0  9995,2 48883  97.5807 214.4264 0008202 223.2451 136.8144 15.25545751 95813,2021-059E,48883,6867.284,94.392,494.782,483.517,0,
GENERATED VIA SPACETRACK.ORG API,18 SPCS,48883,SPACEBEE-100,PAYLOAD,U,21059E,2023/3/20 8:01,383008,15.25545751,0.0008202,97.5807,214.4264,223.2451,136.8144,0,999,9581,0.0014474,0.00036818,0,3865912,0 SPACEBEE-100,1 48883U 21059E   23079.33422897  .00036818  00000-0  14474-2 0  9995,2 48883  97.5807 214.4264 0008202 223.2451 136.8144 15.25545751 95813,2021-059E,48883,6867.284,94.392,494.782,483.517,0,
GENERATED VIA SPACETRACK.ORG API,18 SPCS,48883,SPACEBEE-100,PAYLOAD,U,21059E,2023/3/21 7:38,822208,15.25624532,0.0008151,97.5811,215.4235,219.9638,140.1,0,999,9596,0.0015535,0.0003963,0,3866730,0 SPACEBEE-100,1 48883U 21059E   23080.31808822  .00039630  00000-0  15535-2 0  9995,2 48883  97.5811 215.4235 0008151 219.9638 140.1000 15.25624532 95969,2021-059E,48883,6867.048,94.388,494.51,483.315,0,
GENERATED VIA SPACETRACK.ORG API,18 SPCS,48883,SPACEBEE-100,PAYLOAD,U,21059E,2023/3/21 20:13,272864,15.25665291,0.0008142,97.5816,215.9553,217.9669,142.0996,0,999,9604,0.0014743,0.00037642,0,3866863,0 SPACEBEE-100,1 48883U 21059E   23080.84279251  .00037642  00000-0  14743-2 0  9992,2 48883  97.5816 215.9553 0008142 217.9669 142.0996 15.25665291 96046,2021-059E,48883,6866.925,94.385,494.381,483.199,0,
GENERATED VIA SPACETRACK.ORG API,18 SPCS,48883,SPACEBEE-100,PAYLOAD,U,21059E,2023/3/21 21:48,998304,15.2566994,0.0008139,97.5816,216.0218,217.692,142.3749,0,999,9605,0.0014657,0.00037426,0,3866953,0 SPACEBEE-100,1 48883U 21059E   23080.90837961  .00037426  00000-0  14657-2 0  9991,2 48883  97.5816 216.0218 0008139 217.6920 142.3749 15.25669940 96054,2021-059E,48883,6866.911,94.385,494.365,483.187,0,
